[{"OBJECT_NAME":"STARLINK-5545","OBJECT_ID":"2023-064AE","EPOCH":"2026-03-09T12:43:53.603328","MEAN_MOTION":14.98330169,"ECCENTRICITY":0.00029529,"INCLINATION":69.9995,"RA_OF_ASC_NODE":124.9344,"ARG_OF_PERICENTER":272.6194,"MEAN_ANOMALY":87.4627,"EPHEMERIS_TYPE":0,"CLASSIFICATION_TYPE":"U","NORAD_CAT_ID":56476,"ELEMENT_SET_NO":999,"REV_AT_EPOCH":15571,"BSTAR":-9.6141793e-5,"MEAN_MOTION_DOT":-1.24e-5,"MEAN_MOTION_DDOT":0},{"OBJECT_NAME":"CZ-6A DEB","OBJECT_ID":"2024-140GW","EPOCH":"2026-03-09T13:40:41.444832","MEAN_MOTION":14.63521789,"ECCENTRICITY":0.016262,"INCLINATION":89.029,"RA_OF_ASC_NODE":283.5875,"ARG_OF_PERICENTER":212.7771,"MEAN_ANOMALY":146.3276,"EPHEMERIS_TYPE":0,"CLASSIFICATION_TYPE":"U","NORAD_CAT_ID":60819,"ELEMENT_SET_NO":999,"REV_AT_EPOCH":8379,"BSTAR":0.00016069,"MEAN_MOTION_DOT":1.03e-5,"MEAN_MOTION_DDOT":0}]
